FENGYUN 1C DEB          
1 31021U 99025BDP 17337.29147548  .00000553  00000-0  70670-4 0  9990
2 31021  98.6080   6.7490 0354019 295.9003  60.6098 14.50925550564242
